OBJECT_NAME,OBJECT_ID,EPOCH,MEAN_MOTION,ECCENTRICITY,INCLINATION,RA_OF_ASC_NODE,ARG_OF_PERICENTER,MEAN_ANOMALY,EPHEMERIS_TYPE,CLASSIFICATION_TYPE,NORAD_CAT_ID,ELEMENT_SET_NO,REV_AT_EPOCH,BSTAR,MEAN_MOTION_DOT,MEAN_MOTION_DDOT
ONEWEB-0162,2021-025Q,2026-06-27T09:55:56.088768,13.13470546,.0001967,87.8967,318.1877,94.1783,265.9571,0,U,48056,999,25488,-.69976E-3,-.243E-5,0
ONEWEB-0155,2021-025R,2026-06-27T10:05:52.548576,13.13470816,.000193,87.8967,318.1823,103.3893,256.7451,0,U,48057,999,25502,-.84263E-3,-.295E-5,0
ONEWEB-0149,2021-025S,2026-06-27T10:37:34.914144,13.13468304,.000184,87.8968,318.1824,90.7219,269.4121,0,U,48058,999,25483,.20104E-2,.747E-5,0
ONEWEB-0148,2021-025T,2026-06-27T09:43:56.227296,13.13470784,.0002332,87.8963,318.1955,87.9545,272.1851,0,U,48059,999,25495,-.35808E-3,-.118E-5,0
ONEWEB-0160,2021-025U,2026-06-27T10:08:18.017664,13.13470313,.0001167,87.8963,318.1883,89.6598,270.4665,0,U,48060,999,25490,-.13035E-2,-.463E-5,0
ONEWEB-0163,2021-025V,2026-06-27T09:46:21.928800,13.13468474,.0002124,87.8970,318.1862,102.3054,257.8313,0,U,48061,999,25502,-.71444E-3,-.248E-5,0
ONEWEB-0159,2021-025W,2026-06-27T09:34:11.034048,13.13468545,.0002066,87.8974,318.1819,103.2362,256.8998,0,U,48062,999,25494,-.16568E-3,-.48E-6,0
ONEWEB-0164,2021-025X,2026-06-27T10:57:04.195584,13.13471064,.0001787,87.8974,318.1768,99.0894,261.0437,0,U,48063,999,25493,.81718E-3,.311E-5,0
ONEWEB-0167,2021-025Y,2026-06-27T09:47:35.921760,13.13468596,.0002074,87.8962,318.1951,117.1297,243.0044,0,U,48064,999,25491,-.74292E-3,-.259E-5,0
ONEWEB-0166,2021-025Z,2026-06-27T10:20:30.794208,13.13472297,.0001915,87.8970,318.1633,97.4982,262.6365,0,U,48065,999,25499,-.36358E-3,-.12E-5,0
ONEWEB-0151,2021-025AA,2026-06-27T10:22:55.784640,13.13471741,.0001829,87.8964,318.1790,102.4719,257.6615,0,U,48066,999,25493,-.28602E-3,-.92E-6,0
ONEWEB-0170,2021-025AB,2026-06-27T10:35:06.168768,13.13487540,.0001506,87.8966,318.1791,103.9598,256.1699,0,U,48067,999,25489,-.95085E-2,-.3459E-4,0
ONEWEB-0168,2021-025AC,2026-06-27T10:13:10.348608,13.13469561,.0001889,87.8971,318.1827,100.3744,259.7598,0,U,48068,999,25490,-.52999E-3,-.181E-5,0
ONEWEB-0173,2021-025AD,2026-06-27T10:00:59.774400,13.13471358,.0002152,87.8965,318.1857,106.5554,253.5812,0,U,48069,999,25514,-.73476E-3,-.256E-5,0
ONEWEB-0171,2021-025AE,2026-06-27T10:54:37.852992,13.13471369,.0001807,87.8961,318.1859,100.6566,259.4767,0,U,48070,999,25496,.89968E-3,.341E-5,0
ONEWEB-0172,2021-025AF,2026-06-27T10:25:22.821888,13.13469946,.0001924,87.8968,318.1804,103.4301,256.7043,0,U,48071,999,25585,-.1194E-3,-.31E-6,0
ONEWEB-0174,2021-025AG,2026-06-27T09:58:33.800736,13.13471407,.0002019,87.8967,318.1832,96.1034,264.0325,0,U,48072,999,25517,-.69989E-3,-.243E-5,0
ONEWEB-0175,2021-025AH,2026-06-27T10:42:26.686080,13.13471666,.0001697,87.8971,318.1620,108.3941,251.7372,0,U,48073,999,25483,.77637E-3,.296E-5,0
ONEWEB-0177,2021-025AJ,2026-06-27T10:59:30.591744,13.13469541,.0002115,87.8969,318.1778,98.3226,261.8143,0,U,48074,999,25502,.98078E-3,.371E-5,0
ONEWEB-0178,2021-025AK,2026-06-27T09:36:50.048064,13.13468289,.0001917,87.8960,318.2004,106.7914,253.3426,0,U,48075,999,25506,-.24029E-3,-.75E-6,0
ONEWEB-0108,2021-025AL,2026-06-27T10:27:48.919968,13.13471752,.000182,87.8972,318.1739,91.3239,268.8098,0,U,48076,999,25499,.93711E-4,.47E-6,0
ONEWEB-0169,2021-025AM,2026-06-27T09:24:26.239968,13.13470188,.0001972,87.8963,318.1898,96.5822,263.5532,0,U,48077,999,25364,.37082E-3,.148E-5,0
ONEWEB-0176,2021-031A,2026-06-27T12:44:38.906304,13.14504183,.0001984,87.8972,287.6379,103.8244,256.3107,0,U,48210,999,24967,.42574E-3,.171E-5,0
ONEWEB-0184,2021-031B,2026-06-27T08:26:36.474720,13.14503791,.0001987,87.8977,287.6749,125.5369,234.5946,0,U,48211,999,24962,.16347E-3,.73E-6,0
ONEWEB-0179,2021-031C,2026-06-27T13:17:45.218112,14.25532162,.0219436,87.8994,284.4774,223.0938,135.2897,0,U,48212,999,25052,.7357E-4,.242E-5,0
ONEWEB-0180,2021-031D,2026-06-27T08:31:11.630208,13.14507545,.0002142,87.8979,287.6703,106.5166,253.6200,0,U,48213,999,24955,-.12117E-2,-.436E-5,0
ONEWEB-0218,2021-031E,2026-06-27T12:42:22.756320,13.14502101,.0002286,87.8981,287.6352,123.8012,236.3336,0,U,48214,999,24973,.33963E-3,.139E-5,0
ONEWEB-0209,2021-031F,2026-06-27T06:57:33.339744,13.14502696,.0002206,87.8969,287.6989,100.6669,259.4709,0,U,48215,999,24970,.54133E-3,.213E-5,0
ONEWEB-0198,2021-031G,2026-06-27T08:24:32.082048,13.14503581,.0002295,87.8960,287.6853,109.5743,250.5635,0,U,48216,999,24982,-.20732E-3,-.64E-6,0
ONEWEB-0189,2021-031H,2026-06-27T08:42:35.894880,13.14503569,.0002189,87.8971,287.6700,107.9801,252.1567,0,U,48217,999,24956,.34848E-3,.142E-5,0
