ONEWEB-0162             
1 48056U 21025Q   26178.41384362 -.00000243  00000+0 -69976-3 0  9998
2 48056  87.8967 318.1877 0001967  94.1783 265.9571 13.13470546254886
ONEWEB-0155             
1 48057U 21025R   26178.42074709 -.00000295  00000+0 -84263-3 0  9994
2 48057  87.8967 318.1823 0001930 103.3893 256.7451 13.13470816255025
ONEWEB-0149             
1 48058U 21025S   26178.44276521  .00000747  00000+0  20104-2 0  9996
2 48058  87.8968 318.1824 0001840  90.7219 269.4121 13.13468304254831
ONEWEB-0148             
1 48059U 21025T   26178.40551189 -.00000118  00000+0 -35808-3 0  9991
2 48059  87.8963 318.1955 0002332  87.9545 272.1851 13.13470784254958
ONEWEB-0160             
1 48060U 21025U   26178.42243076 -.00000463  00000+0 -13035-2 0  9998
2 48060  87.8963 318.1883 0001167  89.6598 270.4665 13.13470313254909
ONEWEB-0163             
1 48061U 21025V   26178.40719825 -.00000248  00000+0 -71444-3 0  9997
2 48061  87.8970 318.1862 0002124 102.3054 257.8313 13.13468474255027
ONEWEB-0159             
1 48062U 21025W   26178.39873882 -.00000048  00000+0 -16568-3 0  9994
2 48062  87.8974 318.1819 0002066 103.2362 256.8998 13.13468545254948
ONEWEB-0164             
1 48063U 21025X   26178.45629856  .00000311  00000+0  81718-3 0  9992
2 48063  87.8974 318.1768 0001787  99.0894 261.0437 13.13471064254938
ONEWEB-0167             
1 48064U 21025Y   26178.40805465 -.00000259  00000+0 -74292-3 0  9992
2 48064  87.8962 318.1951 0002074 117.1297 243.0044 13.13468596254917
ONEWEB-0166             
1 48065U 21025Z   26178.43091197 -.00000120  00000+0 -36358-3 0  9993
2 48065  87.8970 318.1633 0001915  97.4982 262.6365 13.13472297254992
ONEWEB-0151             
1 48066U 21025AA  26178.43259010 -.00000092  00000+0 -28602-3 0  9995
2 48066  87.8964 318.1790 0001829 102.4719 257.6615 13.13471741254938
ONEWEB-0170             
1 48067U 21025AB  26178.44104362 -.00003459  00000+0 -95085-2 0  9994
2 48067  87.8966 318.1791 0001506 103.9598 256.1699 13.13487540254890
ONEWEB-0168             
1 48068U 21025AC  26178.42581422 -.00000181  00000+0 -52999-3 0  9996
2 48068  87.8971 318.1827 0001889 100.3744 259.7598 13.13469561254907
ONEWEB-0173             
1 48069U 21025AD  26178.41735850 -.00000256  00000+0 -73476-3 0  9998
2 48069  87.8965 318.1857 0002152 106.5554 253.5812 13.13471358255140
ONEWEB-0171             
1 48070U 21025AE  26178.45460478  .00000341  00000+0  89968-3 0  9991
2 48070  87.8961 318.1859 0001807 100.6566 259.4767 13.13471369254969
ONEWEB-0172             
1 48071U 21025AF  26178.43429192 -.00000031  00000+0 -11940-3 0  9991
2 48071  87.8968 318.1804 0001924 103.4301 256.7043 13.13469946255859
ONEWEB-0174             
1 48072U 21025AG  26178.41566899 -.00000243  00000+0 -69989-3 0  9997
2 48072  87.8967 318.1832 0002019  96.1034 264.0325 13.13471407255172
ONEWEB-0175             
1 48073U 21025AH  26178.44614220  .00000296  00000+0  77637-3 0  9998
2 48073  87.8971 318.1620 0001697 108.3941 251.7372 13.13471666254831
ONEWEB-0177             
1 48074U 21025AJ  26178.45799296  .00000371  00000+0  98078-3 0  9993
2 48074  87.8969 318.1778 0002115  98.3226 261.8143 13.13469541255022
ONEWEB-0178             
1 48075U 21025AK  26178.40057926 -.00000075  00000+0 -24029-3 0  9994
2 48075  87.8960 318.2004 0001917 106.7914 253.3426 13.13468289255066
ONEWEB-0108             
1 48076U 21025AL  26178.43598287  .00000047  00000+0  93711-4 0  9990
2 48076  87.8972 318.1739 0001820  91.3239 268.8098 13.13471752254992
ONEWEB-0169             
1 48077U 21025AM  26178.39197037  .00000148  00000+0  37082-3 0  9994
2 48077  87.8963 318.1898 0001972  96.5822 263.5532 13.13470188253640
ONEWEB-0176             
1 48210U 21031A   26178.53100586  .00000171  00000+0  42574-3 0  9997
2 48210  87.8972 287.6379 0001984 103.8244 256.3107 13.14504183249676
ONEWEB-0184             
1 48211U 21031B   26178.35181105  .00000073  00000+0  16347-3 0  9994
2 48211  87.8977 287.6749 0001987 125.5369 234.5946 13.14503791249623
ONEWEB-0179             
1 48212U 21031C   26178.55399558  .00000242  00000+0  73570-4 0  9990
2 48212  87.8994 284.4774 0219436 223.0938 135.2897 14.25532162250522
ONEWEB-0180             
1 48213U 21031D   26178.35499572 -.00000436  00000+0 -12117-2 0  9991
2 48213  87.8979 287.6703 0002142 106.5166 253.6200 13.14507545249553
ONEWEB-0218             
1 48214U 21031E   26178.52943005  .00000139  00000+0  33963-3 0  9997
2 48214  87.8981 287.6352 0002286 123.8012 236.3336 13.14502101249739
ONEWEB-0209             
1 48215U 21031F   26178.28996921  .00000213  00000+0  54133-3 0  9991
2 48215  87.8969 287.6989 0002206 100.6669 259.4709 13.14502696249701
ONEWEB-0198             
1 48216U 21031G   26178.35037132 -.00000064  00000+0 -20732-3 0  9994
2 48216  87.8960 287.6853 0002295 109.5743 250.5635 13.14503581249829
ONEWEB-0189             
1 48217U 21031H   26178.36291545  .00000142  00000+0  34848-3 0  9994
2 48217  87.8971 287.6700 0002189 107.9801 252.1567 13.14503569249561
